[{"OBJECT_NAME":"DONGPO 08","OBJECT_ID":"2022-167E","EPOCH":"2026-03-09T22:57:52.742880","MEAN_MOTION":15.31542505,"ECCENTRICITY":0.00092155,"INCLINATION":97.6764,"RA_OF_ASC_NODE":233.3854,"ARG_OF_PERICENTER":153.9158,"MEAN_ANOMALY":206.2548,"EPHEMERIS_TYPE":0,"CLASSIFICATION_TYPE":"U","NORAD_CAT_ID":54686,"ELEMENT_SET_NO":999,"REV_AT_EPOCH":18012,"BSTAR":0.0004734784,"MEAN_MOTION_DOT":0.0001437,"MEAN_MOTION_DDOT":0},{"OBJECT_NAME":"STARLINK-36554","OBJECT_ID":"2026-012K","EPOCH":"2026-03-08T17:06:15.871680","MEAN_MOTION":15.27591469,"ECCENTRICITY":6.955e-5,"INCLINATION":42.9934,"RA_OF_ASC_NODE":319.8184,"ARG_OF_PERICENTER":339.2059,"MEAN_ANOMALY":20.8765,"EPHEMERIS_TYPE":0,"CLASSIFICATION_TYPE":"U","NORAD_CAT_ID":67502,"ELEMENT_SET_NO":999,"REV_AT_EPOCH":761,"BSTAR":0.0011969118,"MEAN_MOTION_DOT":0.00032833,"MEAN_MOTION_DDOT":0}]
